{
    "links": {
        "self": "http://www.neowsapp.com/rest/v1/neo/3797847?api_key=iIulBulltgU6a56xZRHN4H3l9WmuAYTsLGpBGhQ2"
    },
    "id": "3797847",
    "neo_reference_id": "3797847",
    "name": "(2018 BX2)",
    "designation": "2018 BX2",
    "nasa_jpl_url": "http://ssd.jpl.nasa.gov/sbdb.cgi?sstr=3797847",
    "absolute_magnitude_h": 23.3,
    "estimated_diameter": {
        "kilometers": {
            "estimated_diameter_min": 0.058150704,
            "estimated_diameter_max": 0.130028927
        },
        "meters": {
            "estimated_diameter_min": 58.1507039646,
            "estimated_diameter_max": 130.0289270043
        },
        "miles": {
            "estimated_diameter_min": 0.0361331611,
            "estimated_diameter_max": 0.0807962044
        },
        "feet": {
            "estimated_diameter_min": 190.7831555951,
            "estimated_diameter_max": 426.6041048727
        }
    },
    "is_potentially_hazardous_asteroid": false,
    "close_approach_data": [
        {
            "close_approach_date": "2018-02-03",
            "close_approach_date_full": "2018-Feb-03 17:11",
            "epoch_date_close_approach": 1517677860000,
            "relative_velocity": {
                "kilometers_per_second": "10.8836745147",
                "kilometers_per_hour": "39181.2282530086",
                "miles_per_hour": "24345.6915219875"
            },
            "miss_distance": {
                "astronomical": "0.2073776292",
                "lunar": "80.6698977588",
                "kilometers": "31023251.613969804",
                "miles": "19276954.6686551352"
            },
            "orbiting_body": "Earth"
        },
        {
            "close_approach_date": "2155-01-31",
            "close_approach_date_full": "2155-Jan-31 04:29",
            "epoch_date_close_approach": 5840656140000,
            "relative_velocity": {
                "kilometers_per_second": "9.4904913904",
                "kilometers_per_hour": "34165.7690054775",
                "miles_per_hour": "21229.2801912091"
            },
            "miss_distance": {
                "astronomical": "0.1915427436",
                "lunar": "74.5101272604",
                "kilometers": "28654386.456516132",
                "miles": "17805010.1147893416"
            },
            "orbiting_body": "Earth"
        },
        {
            "close_approach_date": "2170-01-30",
            "close_approach_date_full": "2170-Jan-30 23:56",
            "epoch_date_close_approach": 6314025360000,
            "relative_velocity": {
                "kilometers_per_second": "9.4284354538",
                "kilometers_per_hour": "33942.3676337835",
                "miles_per_hour": "21090.4672666695"
            },
            "miss_distance": {
                "astronomical": "0.181597753",
                "lunar": "70.641525917",
                "kilometers": "27166637.04558611",
                "miles": "16880565.497903918"
            },
            "orbiting_body": "Earth"
        }
    ],
    "orbital_data": {
        "orbit_id": "5",
        "orbit_determination_date": "2018-02-12 06:23:03",
        "first_observation_date": "2018-01-16",
        "last_observation_date": "2018-02-07",
        "data_arc_in_days": 22,
        "observations_used": 31,
        "orbit_uncertainty": "7",
        "minimum_orbit_intersection": ".106365",
        "jupiter_tisserand_invariant": "4.416",
        "epoch_osculation": "2459000.5",
        "eccentricity": ".2866681554837284",
        "semi_major_axis": "1.520511595080872",
        "inclination": "16.42486592825624",
        "ascending_node_longitude": "134.1945650465245",
        "orbital_period": "684.8304010858869",
        "perihelion_distance": "1.084629340727417",
        "perihelion_argument": "344.3505480966408",
        "aphelion_distance": "1.956393849434328",
        "perihelion_time": "2458832.059914186590",
        "mean_anomaly": "88.5451796483882",
        "mean_motion": ".5256775975908393",
        "equinox": "J2000",
        "orbit_class": {
            "orbit_class_type": "AMO",
            "orbit_class_description": "Near-Earth asteroid orbits similar to that of 1221 Amor",
            "orbit_class_range": "1.017 AU < q (perihelion) < 1.3 AU"
        }
    },
    "is_sentry_object": false
}